     3.00           N                   E                   RINEX VERSION / TYPE
BRD_USR             ESA                 20190115 011708  UTCPGM / RUN BY / DATE
 GAL   3.6500E+01  1.4844E-01  3.9673E-04  0.0000E+00       IONOSPHERIC CORR
GAUT  2.7939677238E-09-1.776356839E-15  86400 2036 GSTB   0 TIME SYSTEM CORR
GPGA -1.4551915228E-09-1.110223025E-14 172800 2036 GSTB   0 TIME SYSTEM CORR
                                                            END OF HEADER
E03 2019 01 14 23 20 00-1.222392893396E-04-4.249045559845E-12 0.000000000000E+00
     2.800000000000E+01-3.565625000000E+01 3.314066615605E-09-2.724892737463E+00
    -1.691281795502E-06 2.564020687714E-04 9.763985872269E-06 5.440620197296E+03
     1.704000000000E+05 3.166496753693E-08 1.119847093395E+00 0.000000000000E+00
     9.524316173770E-01 1.261562500000E+02 6.208376290649E-01-5.657021351932E-09
    -2.260808457461E-10 2.580000000000E+02 2.036000000000E+03 0.000000000000E+00
     3.120000000000E+00 0.000000000000E+00-1.862645149231E-09 0.000000000000E+00
     1.712000000000E+05 0.000000000000E+00 0.000000000000E+00 0.000000000000E+00
E09 2019 01 14 23 20 00 6.558092718478E-03-1.131184035330E-11 0.000000000000E+00
     2.800000000000E+01-3.643750000000E+01 3.192632985979E-09-6.192767276586E-01
    -1.601874828339E-06 2.392929745838E-04 8.959323167801E-06 5.440618583679E+03
     1.704000000000E+05-9.313225746155E-09 1.111242864640E+00 2.235174179077E-08
     9.584479557530E-01 1.445312500000E+02 8.633011960743E-02-5.594518748447E-09
    -1.189335254873E-10 2.580000000000E+02 2.036000000000E+03 0.000000000000E+00
     3.120000000000E+00 0.000000000000E+00-3.259629011154E-09 0.000000000000E+00
     1.712000000000E+05 0.000000000000E+00 0.000000000000E+00 0.000000000000E+00
E03 2019 01 14 23 20 00-1.222394057550E-04-4.263256414561E-12 0.000000000000E+00
     2.800000000000E+01-3.565625000000E+01 3.314066615605E-09-2.724892737463E+00
    -1.691281795502E-06 2.564020687714E-04 9.763985872269E-06 5.440620197296E+03
     1.704000000000E+05 3.166496753693E-08 1.119847093395E+00 0.000000000000E+00
     9.524316173770E-01 1.261562500000E+02 6.208376290649E-01-5.657021351932E-09
    -2.260808457461E-10 5.210000000000E+02 2.036000000000E+03 0.000000000000E+00
     3.120000000000E+00 0.000000000000E+00-1.862645149231E-09-2.095475792885E-09
     1.712050000000E+05 0.000000000000E+00 0.000000000000E+00 0.000000000000E+00
E26 2019 01 14 23 20 00 5.019122152589E-03-4.339995030023E-11 0.000000000000E+00
     2.800000000000E+01-4.059375000000E+01 2.847261457011E-09-3.831875335960E-01
    -1.776963472366E-06 3.142157802358E-04 8.683651685715E-06 5.440605817795E+03
     1.704000000000E+05 3.725290298462E-08-9.818621571057E-01-5.587935447693E-09
     9.783431003514E-01 1.633437500000E+02-1.970933742742E+00-5.485228481783E-09
     1.667926618696E-10 5.210000000000E+02 2.036000000000E+03 0.000000000000E+00
     3.120000000000E+00 0.000000000000E+00 1.164153218269E-09 1.396983861923E-09
     1.712350000000E+05 0.000000000000E+00 0.000000000000E+00 0.000000000000E+00
E26 2019 01 14 23 20 00 5.019121803343E-03-4.339995030023E-11 0.000000000000E+00
     2.800000000000E+01-4.059375000000E+01 2.847261457011E-09-3.831875335960E-01
    -1.776963472366E-06 3.142157802358E-04 8.683651685715E-06 5.440605817795E+03
     1.704000000000E+05 3.725290298462E-08-9.818621571057E-01-5.587935447693E-09
     9.783431003514E-01 1.633437500000E+02-1.970933742742E+00-5.485228481783E-09
     1.667926618696E-10 2.580000000000E+02 2.036000000000E+03 0.000000000000E+00
     3.120000000000E+00 0.000000000000E+00 1.164153218269E-09 0.000000000000E+00
     1.712500000000E+05 0.000000000000E+00 0.000000000000E+00 0.000000000000E+00
E08 2019 01 14 23 10 00 6.423325685319E-03-7.489120434911E-12 0.000000000000E+00
     2.700000000000E+01-5.018750000000E+01 3.250849696653E-09 2.857425717468E+00
    -2.296641469002E-06 2.116073155776E-04 9.635463356972E-06 5.440614061356E+03
     1.698000000000E+05 5.587935447693E-08 1.111249930534E+00-3.725290298462E-09
     9.584185745063E-01 1.315312500000E+02 4.635055031618E-01-5.618805474373E-09
    -2.225092684042E-10 5.210000000000E+02 2.036000000000E+03 0.000000000000E+00
     3.120000000000E+00 0.000000000000E+00-8.614733815193E-09-9.778887033463E-09
     1.715950000000E+05 0.000000000000E+00 0.000000000000E+00 0.000000000000E+00
E08 2019 01 14 23 10 00 6.423326674849E-03-7.489120434911E-12 0.000000000000E+00
     2.700000000000E+01-5.018750000000E+01 3.250849696653E-09 2.857425717468E+00
    -2.296641469002E-06 2.116073155776E-04 9.635463356972E-06 5.440614061356E+03
     1.698000000000E+05 5.587935447693E-08 1.111249930534E+00-3.725290298462E-09
     9.584185745063E-01 1.315312500000E+02 4.635055031618E-01-5.618805474373E-09
    -2.225092684042E-10 2.580000000000E+02 2.036000000000E+03 0.000000000000E+00
     3.120000000000E+00 0.000000000000E+00-8.614733815193E-09 0.000000000000E+00
     1.716000000000E+05 0.000000000000E+00 0.000000000000E+00 0.000000000000E+00
E01 2019 01 14 23 30 00-5.208976799622E-04-8.171241461241E-12 0.000000000000E+00
     2.900000000000E+01 7.362500000000E+01 3.033697794262E-09-3.883826790004E-01
     3.436580300331E-06 8.077430538833E-05 4.328787326813E-06 5.440615018845E+03
     1.710000000000E+05-2.048909664154E-08-3.070776499333E+00 7.636845111847E-08
     9.900973720897E-01 2.624375000000E+02-5.888744504474E-01-5.675950711844E-09
     5.785955293977E-11 5.210000000000E+02 2.036000000000E+03 0.000000000000E+00
     3.120000000000E+00 0.000000000000E+00-4.656612873077E-09-5.122274160385E-09
     1.716850000000E+05 0.000000000000E+00 0.000000000000E+00 0.000000000000E+00
E02 2019 01 14 23 30 00 4.335655830801E-05 1.634248292248E-12 0.000000000000E+00
     2.900000000000E+01 6.409375000000E+01 3.048341261364E-09 2.281307709326E+00
     3.039836883545E-06 2.549915807322E-04 4.353001713753E-06 5.440616621017E+03
     1.710000000000E+05-4.470348358154E-08-3.070809736831E+00-3.725290298462E-08
     9.901058379966E-01 2.615937500000E+02-1.186836749886E-01-5.696308702693E-09
     1.785788670980E-11 5.210000000000E+02 2.036000000000E+03 0.000000000000E+00
     3.120000000000E+00 0.000000000000E+00-6.286427378654E-09-7.683411240578E-09
     1.716850000000E+05 0.000000000000E+00 0.000000000000E+00 0.000000000000E+00
E03 2019 01 14 23 30 00-1.222419668920E-04-4.263256414561E-12 0.000000000000E+00
     2.900000000000E+01-3.596875000000E+01 3.317638192947E-09-2.650927046392E+00
    -1.706182956696E-06 2.565034665167E-04 9.713694453239E-06 5.440619899750E+03
     1.710000000000E+05 3.352761268616E-08 1.119843690648E+00 1.862645149231E-09
     9.524314769368E-01 1.272812500000E+02 6.212570783996E-01-5.657021351932E-09
    -2.246522148093E-10 5.210000000000E+02 2.036000000000E+03 0.000000000000E+00
     3.120000000000E+00 0.000000000000E+00-1.862645149231E-09-2.095475792885E-09
     1.716850000000E+05 0.000000000000E+00 0.000000000000E+00 0.000000000000E+00
E07 2019 01 14 23 30 00-1.126865972765E-04-7.133849067031E-12 0.000000000000E+00
     2.900000000000E+01-5.159375000000E+01 3.368711748937E-09 2.704630989983E+00
    -2.326443791389E-06 1.329075312242E-04 9.430572390556E-06 5.440613813400E+03
     1.710000000000E+05 4.284083843231E-08 1.119845472482E+00-2.793967723846E-08
     9.524758092063E-01 1.320625000000E+02-2.152512353351E-02-5.710595012061E-09
    -2.267951612145E-10 5.210000000000E+02 2.036000000000E+03 0.000000000000E+00
     3.120000000000E+00 0.000000000000E+00 2.328306436539E-10 2.328306436539E-10
     1.716850000000E+05 0.000000000000E+00 0.000000000000E+00 0.000000000000E+00
E09 2019 01 14 23 30 00 6.558085500728E-03-1.132605120802E-11 0.000000000000E+00
     2.900000000000E+01-3.678125000000E+01 3.184418358092E-09-5.447289692795E-01
    -1.613050699234E-06 2.394759794697E-04 8.910894393921E-06 5.440618955612E+03
     1.710000000000E+05-9.313225746155E-09 1.111239508706E+00 2.235174179077E-08
     9.584478811442E-01 1.459687500000E+02 8.616764353679E-02-5.594875906182E-09
    -1.189335254873E-10 5.210000000000E+02 2.036000000000E+03 0.000000000000E+00
     3.120000000000E+00 0.000000000000E+00-3.259629011154E-09-3.958120942116E-09
     1.716850000000E+05 0.000000000000E+00 0.000000000000E+00 0.000000000000E+00
E12 2019 01 14 23 30 00 5.943855619989E-03 8.431300102529E-11 0.000000000000E+00
     2.900000000000E+01-3.003125000000E+01 2.654039122811E-09-2.999650401011E+00
    -1.499429345131E-06 4.044774686918E-04 8.322298526764E-06 5.440609802246E+03
     1.710000000000E+05-1.490116119385E-08-9.854951576233E-01-3.911554813385E-08
     9.819998469553E-01 1.741250000000E+02-8.425154152460E-01-5.446298288756E-09
     1.117903708034E-10 5.210000000000E+02 2.036000000000E+03 0.000000000000E+00
     3.120000000000E+00 0.000000000000E+00-1.559965312481E-08-1.606531441212E-08
     1.716850000000E+05 0.000000000000E+00 0.000000000000E+00 0.000000000000E+00
E14 2019 01 14 23 30 00 6.459837022703E-03-5.627498467220E-12 0.000000000000E+00
     2.900000000000E+01-8.250000000000E+00 4.056597544999E-09-2.130629834542E+00
     2.495944499969E-07 1.662661263254E-01 5.207955837250E-06 5.289366044998E+03
     1.710000000000E+05 1.912936568260E-06-1.587815339339E+00 7.264316082001E-08
     8.826540149969E-01 1.871562500000E+02 1.458166813929E+00-5.115213069156E-09
     6.478841298317E-10 5.210000000000E+02 2.036000000000E+03 0.000000000000E+00
     3.120000000000E+00 4.550000000000E+02 3.306195139885E-08 3.702007234097E-08
     1.716850000000E+05 0.000000000000E+00 0.000000000000E+00 0.000000000000E+00
